HAWK-A                  
1 43765U 18099H   26198.07570926  .00003796  00000+0  15258-3 0  9992
2 43765  97.3893 249.9255 0034934 177.4083 182.7343 15.24979113417658
HAWK-B                  
1 43794U 18099AN  26198.59303626  .00002916  00000+0  12492-3 0  9992
2 43794  97.3942 249.7872 0031628 193.5822 166.4567 15.23130659417666
HAWK-C                  
1 43799U 18099AT  26198.90050595  .00004831  00000+0  17269-3 0  9991
2 43799  97.3869 251.8049 0040579 174.2789 185.8923 15.28516114418607
HAWK-2C                 
1 47502U 21006CT  26198.72898117  .00003389  00000+0  10199-3 0  9991
2 47502  97.2260 242.4339 0008684  93.6942 266.5295 15.35007178304180
HAWK-2A                 
1 47505U 21006CW  26198.73116959  .00003910  00000+0  11726-3 0  9999
2 47505  97.2301 243.1316 0008215  96.9770 263.2409 15.35029192304188
HAWK-2B                 
1 47508U 21006CZ  26198.52893606  .00003810  00000+0  11384-3 0  9999
2 47508  97.2173 241.2174 0008769  95.9169 264.3074 15.35155089304156
HAWK-3B                 
1 48931U 21059BE  26198.07364354  .00028474  00000+0  21904-3 0  9993
2 48931  97.6630  37.6634 0004664 191.2793 168.8366 15.71981880282546
HAWK-3C                 
1 48948U 21059BX  26198.83718932  .00027529  00000+0  21141-3 0  9993
2 48948  97.6748  44.2399 0005017 189.0742 171.0430 15.72026212282669
HAWK-3A                 
1 48957U 21059CG  26198.83707788  .00028404  00000+0  21810-3 0  9996
2 48957  97.6690  41.4199 0004910 191.1892 168.9263 15.72024802282665
HAWK-5C                 
1 52754U 22057Y   26198.92928269  .00011263  00000+0  18634-3 0  9999
2 52754  97.6625   0.6078 0002520 333.7268  26.3856 15.52385881231116
HAWK-5B                 
1 52756U 22057AA  26198.92910466  .00011032  00000+0  18258-3 0  9997
2 52756  97.6637 358.9618 0003227 319.5423  40.5588 15.52382007231117
HAWK-5A                 
1 52757U 22057AB  26198.92890431  .00011283  00000+0  18666-3 0  9998
2 52757  97.6632 359.7918 0003081 325.4381  34.6670 15.52384529231119
HAWK-6B                 
1 55324U 23011A   26198.93568646  .00002570  00000+0  11461-3 0  9998
2 55324  40.4976 172.6890 0004472 254.5549 105.4766 15.23169163192531
HAWK-6C                 
1 55326U 23011C   26198.93505399  .00002298  00000+0  10335-3 0  9992
2 55326  40.4966 169.5282 0004957 248.7068 111.3212 15.23168817192549
HAWK-6A                 
1 55327U 23011D   26198.34499843  .00002348  00000+0  10543-3 0  9991
2 55327  40.4975 174.5982 0004531 242.4920 117.5429 15.23165655192454
HAWK-7A                 
1 56191U 23054P   26198.11313913  .00002943  00000+0  11158-3 0  9990
2 56191  97.2658  84.6895 0001232 321.9127  38.2026 15.27644350181596
