{"fetched_at":"2026-07-18T06:28:09.110Z","source":"https://celestrak.org/NORAD/elements/gp.php?NAME=HAWK&FORMAT=JSON","constellation":"hawkeye-360","records":[{"OBJECT_NAME":"HAWK-A","OBJECT_ID":"2018-099H","EPOCH":"2026-07-17T01:49:01.280064","CLASSIFICATION_TYPE":"U","MEAN_MOTION":15.24979113,"ECCENTRICITY":0.00349345,"INCLINATION":97.3893,"RA_OF_ASC_NODE":249.9255,"ARG_OF_PERICENTER":177.4083,"MEAN_ANOMALY":182.7343,"EPHEMERIS_TYPE":0,"NORAD_CAT_ID":43765,"ELEMENT_SET_NO":999,"REV_AT_EPOCH":41765,"BSTAR":0.00015257672,"MEAN_MOTION_DOT":0.00003796,"MEAN_MOTION_DDOT":0},{"OBJECT_NAME":"HAWK-B","OBJECT_ID":"2018-099AN","EPOCH":"2026-07-17T14:13:58.332864","CLASSIFICATION_TYPE":"U","MEAN_MOTION":15.23130659,"ECCENTRICITY":0.0031628,"INCLINATION":97.3942,"RA_OF_ASC_NODE":249.7872,"ARG_OF_PERICENTER":193.5822,"MEAN_ANOMALY":166.4567,"EPHEMERIS_TYPE":0,"NORAD_CAT_ID":43794,"ELEMENT_SET_NO":999,"REV_AT_EPOCH":41766,"BSTAR":0.00012492,"MEAN_MOTION_DOT":0.00002916,"MEAN_MOTION_DDOT":0},{"OBJECT_NAME":"HAWK-C","OBJECT_ID":"2018-099AT","EPOCH":"2026-07-17T21:36:43.714080","CLASSIFICATION_TYPE":"U","MEAN_MOTION":15.28516114,"ECCENTRICITY":0.00405792,"INCLINATION":97.3869,"RA_OF_ASC_NODE":251.8049,"ARG_OF_PERICENTER":174.2789,"MEAN_ANOMALY":185.8923,"EPHEMERIS_TYPE":0,"NORAD_CAT_ID":43799,"ELEMENT_SET_NO":999,"REV_AT_EPOCH":41860,"BSTAR":0.00017268533,"MEAN_MOTION_DOT":0.00004831,"MEAN_MOTION_DDOT":0},{"OBJECT_NAME":"HAWK-2C","OBJECT_ID":"2021-006CT","EPOCH":"2026-07-17T17:29:43.973088","CLASSIFICATION_TYPE":"U","MEAN_MOTION":15.35007178,"ECCENTRICITY":0.00086841,"INCLINATION":97.226,"RA_OF_ASC_NODE":242.4339,"ARG_OF_PERICENTER":93.6942,"MEAN_ANOMALY":266.5295,"EPHEMERIS_TYPE":0,"NORAD_CAT_ID":47502,"ELEMENT_SET_NO":999,"REV_AT_EPOCH":30418,"BSTAR":0.00010198953,"MEAN_MOTION_DOT":0.00003389,"MEAN_MOTION_DDOT":0},{"OBJECT_NAME":"HAWK-2A","OBJECT_ID":"2021-006CW","EPOCH":"2026-07-17T17:32:53.052576","CLASSIFICATION_TYPE":"U","MEAN_MOTION":15.35029192,"ECCENTRICITY":0.00082153,"INCLINATION":97.2301,"RA_OF_ASC_NODE":243.1316,"ARG_OF_PERICENTER":96.977,"MEAN_ANOMALY":263.2409,"EPHEMERIS_TYPE":0,"NORAD_CAT_ID":47505,"ELEMENT_SET_NO":999,"REV_AT_EPOCH":30418,"BSTAR":0.00011725807,"MEAN_MOTION_DOT":0.0000391,"MEAN_MOTION_DDOT":0},{"OBJECT_NAME":"HAWK-2B","OBJECT_ID":"2021-006CZ","EPOCH":"2026-07-17T12:41:40.075584","CLASSIFICATION_TYPE":"U","MEAN_MOTION":15.35155089,"ECCENTRICITY":0.0008769,"INCLINATION":97.2173,"RA_OF_ASC_NODE":241.2174,"ARG_OF_PERICENTER":95.9169,"MEAN_ANOMALY":264.3074,"EPHEMERIS_TYPE":0,"NORAD_CAT_ID":47508,"ELEMENT_SET_NO":999,"REV_AT_EPOCH":30415,"BSTAR":0.00011384,"MEAN_MOTION_DOT":0.0000381,"MEAN_MOTION_DDOT":0},{"OBJECT_NAME":"HAWK-3B","OBJECT_ID":"2021-059BE","EPOCH":"2026-07-17T01:46:02.801856","CLASSIFICATION_TYPE":"U","MEAN_MOTION":15.7198188,"ECCENTRICITY":0.0004664,"INCLINATION":97.663,"RA_OF_ASC_NODE":37.6634,"ARG_OF_PERICENTER":191.2793,"MEAN_ANOMALY":168.8366,"EPHEMERIS_TYPE":0,"NORAD_CAT_ID":48931,"ELEMENT_SET_NO":999,"REV_AT_EPOCH":28254,"BSTAR":0.00021904,"MEAN_MOTION_DOT":0.00028474,"MEAN_MOTION_DDOT":0},{"OBJECT_NAME":"HAWK-3C","OBJECT_ID":"2021-059BX","EPOCH":"2026-07-17T20:05:33.157248","CLASSIFICATION_TYPE":"U","MEAN_MOTION":15.72026212,"ECCENTRICITY":0.0005017,"INCLINATION":97.6748,"RA_OF_ASC_NODE":44.2399,"ARG_OF_PERICENTER":189.0742,"MEAN_ANOMALY":171.043,"EPHEMERIS_TYPE":0,"NORAD_CAT_ID":48948,"ELEMENT_SET_NO":999,"REV_AT_EPOCH":28266,"BSTAR":0.00021141216,"MEAN_MOTION_DOT":0.00027529,"MEAN_MOTION_DDOT":0},{"OBJECT_NAME":"HAWK-3A","OBJECT_ID":"2021-059CG","EPOCH":"2026-07-17T20:05:23.528832","CLASSIFICATION_TYPE":"U","MEAN_MOTION":15.72024802,"ECCENTRICITY":0.00049101,"INCLINATION":97.669,"RA_OF_ASC_NODE":41.4199,"ARG_OF_PERICENTER":191.1892,"MEAN_ANOMALY":168.9263,"EPHEMERIS_TYPE":0,"NORAD_CAT_ID":48957,"ELEMENT_SET_NO":999,"REV_AT_EPOCH":28266,"BSTAR":0.0002180981,"MEAN_MOTION_DOT":0.00028404,"MEAN_MOTION_DDOT":0},{"OBJECT_NAME":"HAWK-5C","OBJECT_ID":"2022-057Y","EPOCH":"2026-07-17T22:18:10.024416","CLASSIFICATION_TYPE":"U","MEAN_MOTION":15.52385881,"ECCENTRICITY":0.00025201,"INCLINATION":97.6625,"RA_OF_ASC_NODE":0.6078,"ARG_OF_PERICENTER":333.7268,"MEAN_ANOMALY":26.3856,"EPHEMERIS_TYPE":0,"NORAD_CAT_ID":52754,"ELEMENT_SET_NO":999,"REV_AT_EPOCH":23111,"BSTAR":0.00018633741,"MEAN_MOTION_DOT":0.00011263,"MEAN_MOTION_DDOT":0},{"OBJECT_NAME":"HAWK-5B","OBJECT_ID":"2022-057AA","EPOCH":"2026-07-17T22:17:54.642624","CLASSIFICATION_TYPE":"U","MEAN_MOTION":15.52382007,"ECCENTRICITY":0.00032277,"INCLINATION":97.6637,"RA_OF_ASC_NODE":358.9618,"ARG_OF_PERICENTER":319.5423,"MEAN_ANOMALY":40.5588,"EPHEMERIS_TYPE":0,"NORAD_CAT_ID":52756,"ELEMENT_SET_NO":999,"REV_AT_EPOCH":23111,"BSTAR":0.00018257639,"MEAN_MOTION_DOT":0.00011032,"MEAN_MOTION_DDOT":0},{"OBJECT_NAME":"HAWK-5A","OBJECT_ID":"2022-057AB","EPOCH":"2026-07-17T22:17:37.332384","CLASSIFICATION_TYPE":"U","MEAN_MOTION":15.52384529,"ECCENTRICITY":0.00030816,"INCLINATION":97.6632,"RA_OF_ASC_NODE":359.7918,"ARG_OF_PERICENTER":325.4381,"MEAN_ANOMALY":34.667,"EPHEMERIS_TYPE":0,"NORAD_CAT_ID":52757,"ELEMENT_SET_NO":999,"REV_AT_EPOCH":23111,"BSTAR":0.00018665983,"MEAN_MOTION_DOT":0.00011283,"MEAN_MOTION_DDOT":0},{"OBJECT_NAME":"HAWK-6B","OBJECT_ID":"2023-011A","EPOCH":"2026-07-17T22:27:23.310144","CLASSIFICATION_TYPE":"U","MEAN_MOTION":15.23169163,"ECCENTRICITY":0.00044723,"INCLINATION":40.4976,"RA_OF_ASC_NODE":172.689,"ARG_OF_PERICENTER":254.5549,"MEAN_ANOMALY":105.4766,"EPHEMERIS_TYPE":0,"NORAD_CAT_ID":55324,"ELEMENT_SET_NO":999,"REV_AT_EPOCH":19253,"BSTAR":0.00011460971,"MEAN_MOTION_DOT":0.0000257,"MEAN_MOTION_DDOT":0},{"OBJECT_NAME":"HAWK-6C","OBJECT_ID":"2023-011C","EPOCH":"2026-07-17T22:26:28.664736","CLASSIFICATION_TYPE":"U","MEAN_MOTION":15.23168817,"ECCENTRICITY":0.00049575,"INCLINATION":40.4966,"RA_OF_ASC_NODE":169.5282,"ARG_OF_PERICENTER":248.7068,"MEAN_ANOMALY":111.3212,"EPHEMERIS_TYPE":0,"NORAD_CAT_ID":55326,"ELEMENT_SET_NO":999,"REV_AT_EPOCH":19254,"BSTAR":0.00010334933,"MEAN_MOTION_DOT":0.00002298,"MEAN_MOTION_DDOT":0},{"OBJECT_NAME":"HAWK-6A","OBJECT_ID":"2023-011D","EPOCH":"2026-07-17T08:16:47.864352","CLASSIFICATION_TYPE":"U","MEAN_MOTION":15.23165655,"ECCENTRICITY":0.0004531,"INCLINATION":40.4975,"RA_OF_ASC_NODE":174.5982,"ARG_OF_PERICENTER":242.492,"MEAN_ANOMALY":117.5429,"EPHEMERIS_TYPE":0,"NORAD_CAT_ID":55327,"ELEMENT_SET_NO":999,"REV_AT_EPOCH":19245,"BSTAR":0.00010543,"MEAN_MOTION_DOT":0.00002348,"MEAN_MOTION_DDOT":0},{"OBJECT_NAME":"HAWK-7A","OBJECT_ID":"2023-054P","EPOCH":"2026-07-17T02:42:55.220832","CLASSIFICATION_TYPE":"U","MEAN_MOTION":15.2764435,"ECCENTRICITY":0.00012326,"INCLINATION":97.2658,"RA_OF_ASC_NODE":84.6895,"ARG_OF_PERICENTER":321.9127,"MEAN_ANOMALY":38.2026,"EPHEMERIS_TYPE":0,"NORAD_CAT_ID":56191,"ELEMENT_SET_NO":999,"REV_AT_EPOCH":18159,"BSTAR":0.00011158353,"MEAN_MOTION_DOT":0.00002943,"MEAN_MOTION_DDOT":0}]}
